{
  "norad_id": 56962,
  "name": "TOMORROW-R2",
  "history": [
    {
      "epoch": "2026-03-28T09:22:52.368096",
      "apogee_km": 345.69000553280057,
      "perigee_km": 338.8797987940252,
      "latitude_deg": -55.182188012411785,
      "longitude_deg": -86.27514655981213,
      "semi_major_axis_km": 6720.421902163413,
      "eccentricity": 0.00050668,
      "inclination_deg": 97.5904,
      "raan_deg": 242.3599,
      "arg_perigee_deg": 193.0232,
      "mean_anomaly_deg": 167.0902,
      "mean_motion_rev_day": 15.75824884
    }
  ]
}